{
  "type": "FeatureCollection",
  "features": [
    {
      "type": "Feature",
      "properties": {
        "norad_id": 29268,
        "name": "ARIRANG-2 (KOMPSAT-2)",
        "group": "resource",
        "lat": 27.493211470018103,
        "lon": 0.6716867336682496,
        "alt_km": 686.030386106966,
        "timestamp": "2025-12-14T03:55:52.449818+00:00",
        "meta_object_name": "ARIRANG-2 (KOMPSAT-2)",
        "meta_object_id": "2006-031A",
        "meta_epoch": "2025-12-13T08:07:18.053760",
        "meta_mean_motion": 14.64494867,
        "meta_eccentricity": 0.00134952,
        "meta_inclination": 97.8264,
        "meta_ra_of_asc_node": 175.7821,
        "meta_arg_of_pericenter": 307.3171,
        "meta_mean_anomaly": 175.8461,
        "meta_ephemeris_type": 0,
        "meta_classification_type": "U",
        "meta_norad_cat_id": 29268,
        "meta_element_set_no": 999,
        "meta_rev_at_epoch": 3427,
        "meta_bstar": 0.00015288685,
        "meta_mean_motion_dot": 7.66e-06,
        "meta_mean_motion_ddot": 0,
        "tle_line1": "1 29268U 06031A   25347.33840340  .00000766  00000+0  15289-3 0  9999",
        "tle_line2": "2 29268  97.8264 175.7821 0013495 307.3171 175.8461 14.64494867 34271"
      },
      "geometry": {
        "type": "Point",
        "coordinates": [
          0.6716867336682496,
          27.493211470018103
        ]
      }
    },
    {
      "type": "Feature",
      "properties": {
        "norad_id": 29709,
        "name": "LAPAN-TUBSAT",
        "group": "resource",
        "lat": -15.30725039302639,
        "lon": 156.10829833104725,
        "alt_km": 621.7853132001874,
        "timestamp": "2025-12-14T03:55:52.449829+00:00",
        "meta_object_name": "LAPAN-TUBSAT",
        "meta_object_id": "2007-001A",
        "meta_epoch": "2025-12-13T06:02:33.061056",
        "meta_mean_motion": 14.85670987,
        "meta_eccentricity": 0.00135549,
        "meta_inclination": 98.126,
        "meta_ra_of_asc_node": 337.4187,
        "meta_arg_of_pericenter": 72.5267,
        "meta_mean_anomaly": 287.7428,
        "meta_ephemeris_type": 0,
        "meta_classification_type": "U",
        "meta_norad_cat_id": 29709,
        "meta_element_set_no": 999,
        "meta_rev_at_epoch": 2354,
        "meta_bstar": 0.00012675778,
        "meta_mean_motion_dot": 1.043e-05,
        "meta_mean_motion_ddot": 0,
        "tle_line1": "1 29709U 07001A   25347.25177154  .00001043  00000+0  12676-3 0  9990",
        "tle_line2": "2 29709  98.1260 337.4187 0013554  72.5267 287.7428 14.85670987 23542"
      },
      "geometry": {
        "type": "Point",
        "coordinates": [
          156.10829833104725,
          -15.30725039302639
        ]
      }
    },
    {
      "type": "Feature",
      "properties": {
        "norad_id": 31113,
        "name": "HAIYANG-1B",
        "group": "resource",
        "lat": 19.150445472240236,
        "lon": 155.29999429592382,
        "alt_km": 794.7594878270602,
        "timestamp": "2025-12-14T03:55:52.449839+00:00",
        "meta_object_name": "HAIYANG-1B",
        "meta_object_id": "2007-010A",
        "meta_epoch": "2025-12-13T05:22:06.685536",
        "meta_mean_motion": 14.3096537,
        "meta_eccentricity": 0.00142431,
        "meta_inclination": 98.3315,
        "meta_ra_of_asc_node": 331.4818,
        "meta_arg_of_pericenter": 36.5718,
        "meta_mean_anomaly": 323.6436,
        "meta_ephemeris_type": 0,
        "meta_classification_type": "U",
        "meta_norad_cat_id": 31113,
        "meta_element_set_no": 999,
        "meta_rev_at_epoch": 97403,
        "meta_bstar": 0.00010171933,
        "meta_mean_motion_dot": 2.26e-06,
        "meta_mean_motion_ddot": 0,
        "tle_line1": "1 31113U 07010A   25347.22368849  .00000226  00000+0  10172-3 0  9993",
        "tle_line2": "2 31113  98.3315 331.4818 0014243  36.5718 323.6436 14.30965370974030"
      },
      "geometry": {
        "type": "Point",
        "coordinates": [
          155.29999429592382,
          19.150445472240236
        ]
      }
    },
    {
      "type": "Feature",
      "properties": {
        "norad_id": 31598,
        "name": "COSMO-SKYMED 1",
        "group": "resource",
        "lat": -22.86296968434191,
        "lon": -9.777715593581542,
        "alt_km": 585.8074365791454,
        "timestamp": "2025-12-14T03:55:52.449849+00:00",
        "meta_object_name": "COSMO-SKYMED 1",
        "meta_object_id": "2007-023A",
        "meta_epoch": "2025-12-13T07:45:38.061216",
        "meta_mean_motion": 14.95772291,
        "meta_eccentricity": 0.00012687,
        "meta_inclination": 97.8834,
        "meta_ra_of_asc_node": 172.7261,
        "meta_arg_of_pericenter": 89.6071,
        "meta_mean_anomaly": 270.5295,
        "meta_ephemeris_type": 0,
        "meta_classification_type": "U",
        "meta_norad_cat_id": 31598,
        "meta_element_set_no": 999,
        "meta_rev_at_epoch": 199,
        "meta_bstar": 0.00055937833,
        "meta_mean_motion_dot": 6.181e-05,
        "meta_mean_motion_ddot": 0,
        "tle_line1": "1 31598U 07023A   25347.32335719  .00006181  00000+0  55938-3 0  9990",
        "tle_line2": "2 31598  97.8834 172.7261 0001268  89.6071 270.5295 14.95772291  1997"
      },
      "geometry": {
        "type": "Point",
        "coordinates": [
          -9.777715593581542,
          -22.86296968434191
        ]
      }
    },
    {
      "type": "Feature",
      "properties": {
        "norad_id": 31698,
        "name": "TERRASAR-X",
        "group": "resource",
        "lat": -21.492811674567875,
        "lon": -3.5231436082611567,
        "alt_km": 514.0705063512733,
        "timestamp": "2025-12-14T03:55:52.449860+00:00",
        "meta_object_name": "TERRASAR-X",
        "meta_object_id": "2007-026A",
        "meta_epoch": "2025-12-12T14:05:10.891104",
        "meta_mean_motion": 15.19146945,
        "meta_eccentricity": 0.00019276,
        "meta_inclination": 97.4459,
        "meta_ra_of_asc_node": 351.9708,
        "meta_arg_of_pericenter": 85.8663,
        "meta_mean_anomaly": 274.2792,
        "meta_ephemeris_type": 0,
        "meta_classification_type": "U",
        "meta_norad_cat_id": 31698,
        "meta_element_set_no": 999,
        "meta_rev_at_epoch": 2489,
        "meta_bstar": 0.00011245028,
        "meta_mean_motion_dot": 2.295e-05,
        "meta_mean_motion_ddot": 0,
        "tle_line1": "1 31698U 07026A   25346.58693161  .00002295  00000+0  11245-3 0  9994",
        "tle_line2": "2 31698  97.4459 351.9708 0001927  85.8663 274.2792 15.19146945 24896"
      },
      "geometry": {
        "type": "Point",
        "coordinates": [
          -3.5231436082611567,
          -21.492811674567875
        ]
      }
    },
    {
      "type": "Feature",
      "properties": {
        "norad_id": 32060,
        "name": "WORLDVIEW-1 (WV-1)",
        "group": "resource",
        "lat": 8.016905009588884,
        "lon": 104.57767205402294,
        "alt_km": 493.6650442087839,
        "timestamp": "2025-12-14T03:55:52.449870+00:00",
        "meta_object_name": "WORLDVIEW-1 (WV-1)",
        "meta_object_id": "2007-041A",
        "meta_epoch": "2025-12-13T07:25:11.755776",
        "meta_mean_motion": 15.24706719,
        "meta_eccentricity": 8.155e-05,
        "meta_inclination": 97.3831,
        "meta_ra_of_asc_node": 104.7817,
        "meta_arg_of_pericenter": 108.8307,
        "meta_mean_anomaly": 251.3019,
        "meta_ephemeris_type": 0,
        "meta_classification_type": "U",
        "meta_norad_cat_id": 32060,
        "meta_element_set_no": 999,
        "meta_rev_at_epoch": 1456,
        "meta_bstar": 0.00053291404,
        "meta_mean_motion_dot": 0.00013123,
        "meta_mean_motion_ddot": 0,
        "tle_line1": "1 32060U 07041A   25347.30916384  .00013123  00000+0  53291-3 0  9990",
        "tle_line2": "2 32060  97.3831 104.7817 0000815 108.8307 251.3019 15.24706719 14562"
      },
      "geometry": {
        "type": "Point",
        "coordinates": [
          104.57767205402294,
          8.016905009588884
        ]
      }
    },
    {
      "type": "Feature",
      "properties": {
        "norad_id": 32289,
        "name": "YAOGAN-3",
        "group": "resource",
        "lat": 21.756378687031894,
        "lon": 11.625005118652286,
        "alt_km": 597.6567973707724,
        "timestamp": "2025-12-14T03:55:52.449880+00:00",
        "meta_object_name": "YAOGAN-3",
        "meta_object_id": "2007-055A",
        "meta_epoch": "2025-12-13T08:29:25.573344",
        "meta_mean_motion": 14.89863391,
        "meta_eccentricity": 0.00012435,
        "meta_inclination": 97.8368,
        "meta_ra_of_asc_node": 13.9732,
        "meta_arg_of_pericenter": 78.3934,
        "meta_mean_anomaly": 281.7423,
        "meta_ephemeris_type": 0,
        "meta_classification_type": "U",
        "meta_norad_cat_id": 32289,
        "meta_element_set_no": 999,
        "meta_rev_at_epoch": 97818,
        "meta_bstar": 0.00044415608,
        "meta_mean_motion_dot": 4.214e-05,
        "meta_mean_motion_ddot": 0,
        "tle_line1": "1 32289U 07055A   25347.35376821  .00004214  00000+0  44416-3 0  9999",
        "tle_line2": "2 32289  97.8368  13.9732 0001243  78.3934 281.7423 14.89863391978188"
      },
      "geometry": {
        "type": "Point",
        "coordinates": [
          11.625005118652286,
          21.756378687031894
        ]
      }
    }
  ]
}